var CountriesVisitedJSON = {
"type": "FeatureCollection",
"name": "CountriesVisistedWGS84",
"crs": { "type": "name", "properties": { "name": "urn:ogc:def:crs:OGC:1.3:CRS84" } },
"features": [
{ "type": "Feature", "properties": { "Name": "Czech Republic", "Photo": "30.jpg", "Link": "" }, "geometry": { "type": "MultiPolygon", "coordinates": [ [ [ [ 14.3978, 51.0131 ], [ 16.3316, 50.644 ], [ 16.6606, 50.093 ], [ 17.708, 50.311 ], [ 18.8332, 49.5103 ], [ 16.945, 48.6042 ], [ 15.004, 49.0098 ], [ 14.0408, 48.6012 ], [ 12.0761, 50.3152 ], [ 14.3978, 51.0131 ] ] ] ] } },
{ "type": "Feature", "properties": { "Name": "Turkey", "Photo": "42.jpg", "Link": "" }, "geometry": { "type": "MultiPolygon", "coordinates": [ [ [ [ 38.3309, 40.9179 ], [ 42.8199, 41.5723 ], [ 43.6654, 40.1102 ], [ 44.3256, 40.0347 ], [ 44.807, 39.6399 ], [ 44.0149, 39.3741 ], [ 44.7661, 37.1419 ], [ 36.6399, 36.8281 ], [ 36.1385, 35.8198 ], [ 36.0203, 36.9263 ], [ 32.8037, 36.0272 ], [ 30.6865, 36.8912 ], [ 29.6724, 36.1234 ], [ 28.452, 36.8836 ], [ 28.0359, 36.5648 ], [ 27.3628, 36.6851 ], [ 28.3294, 37.0368 ], [ 27.2632, 36.9634 ], [ 27.2391, 37.9879 ], [ 26.2346, 38.2738 ], [ 26.4141, 38.6794 ], [ 26.6731, 38.3072 ], [ 27.1642, 38.4466 ], [ 26.9377, 39.5748 ], [ 26.0742, 39.4745 ], [ 26.408, 40.1937 ], [ 29.9242, 40.7165 ], [ 29.1697, 41.2331 ], [ 31.2312, 41.092 ], [ 32.6126, 41.8395 ], [ 34.9907, 42.0911 ], [ 38.3309, 40.9179 ] ] ], [ [ [ 29.0515, 41.0818 ], [ 27.5242, 40.9892 ], [ 26.167, 40.0499 ], [ 26.8289, 40.602 ], [ 26.0537, 40.6606 ], [ 26.32, 41.7655 ], [ 27.3325, 42.0574 ], [ 29.0515, 41.0818 ] ] ] ] } },
{ "type": "Feature", "properties": { "Name": "Lithuania", "Photo": "36.jpg", "Link": "" }, "geometry": { "type": "MultiPolygon", "coordinates": [ [ [ [ 24.9101, 56.422 ], [ 26.8007, 55.2733 ], [ 25.7827, 54.8697 ], [ 25.74, 54.1463 ], [ 23.6271, 53.8982 ], [ 22.5655, 55.0678 ], [ 21.2676, 55.2487 ], [ 21.0534, 56.0726 ], [ 24.9101, 56.422 ] ] ] ] } },
{ "type": "Feature", "properties": { "Name": "India", "Photo": "70.jpg", "Link": "" }, "geometry": { "type": "MultiPolygon", "coordinates": [ [ [ [ 77.8571, 35.4366 ], [ 79.5, 32.7468 ], [ 78.3848, 32.5476 ], [ 78.7451, 31.3081 ], [ 80.976, 30.2552 ], [ 80.0364, 28.837 ], [ 81.8557, 27.8509 ], [ 87.314, 26.3438 ], [ 88.0443, 26.4057 ], [ 88.594, 28.1066 ], [ 89.0965, 26.8214 ], [ 92.0359, 26.8549 ], [ 91.6329, 27.7594 ], [ 94.5999, 29.3166 ], [ 96.3499, 29.2742 ], [ 97.3622, 27.9949 ], [ 97.1192, 27.0873 ], [ 95.1228, 26.6116 ], [ 94.1319, 23.857 ], [ 93.3097, 24.064 ], [ 92.8775, 21.957 ], [ 92.2593, 23.7065 ], [ 91.5861, 22.9445 ], [ 91.1363, 23.6295 ], [ 92.4838, 24.9282 ], [ 89.819, 25.285 ], [ 89.653, 26.2227 ], [ 88.3725, 26.6116 ], [ 88.0876, 25.831 ], [ 88.9849, 25.285 ], [ 88.0218, 24.6456 ], [ 88.7375, 24.2871 ], [ 89.0827, 21.6173 ], [ 88.6602, 22.205 ], [ 88.2544, 21.5547 ], [ 88.198, 22.1678 ], [ 87.9066, 22.4248 ], [ 86.4263, 19.9992 ], [ 85.2681, 19.78 ], [ 82.3074, 16.5798 ], [ 80.2796, 15.7007 ], [ 79.8567, 10.2933 ], [ 78.9133, 9.4743 ], [ 79.4536, 9.159 ], [ 78.4121, 9.0998 ], [ 77.5109, 8.076 ], [ 76.544, 8.9125 ], [ 73.447, 16.0689 ], [ 72.6492, 19.852 ], [ 72.9175, 22.2714 ], [ 72.1488, 22.2779 ], [ 72.1047, 21.2051 ], [ 70.7402, 20.7185 ], [ 68.9446, 22.2951 ], [ 70.1785, 22.562 ], [ 70.5029, 23.1044 ], [ 69.5857, 22.7612 ], [ 68.4237, 23.4458 ], [ 68.8216, 23.8784 ], [ 68.1434, 23.6127 ], [ 68.7473, 24.3312 ], [ 71.0828, 24.4115 ], [ 69.5344, 27.1256 ], [ 70.3419, 28.0115 ], [ 71.8744, 27.9597 ], [ 75.3486, 32.242 ], [ 74.0023, 33.1777 ], [ 73.9193, 34.6425 ], [ 75.7771, 34.5038 ], [ 77.8571, 35.4366 ] ] ] ] } },
{ "type": "Feature", "properties": { "Name": "France", "Photo": "55.jpg", "Link": "" }, "geometry": { "type": "MultiPolygon", "coordinates": [ [ [ [ 2.537, 51.0646 ], [ 4.1317, 49.975 ], [ 4.8156, 50.1613 ], [ 5.4561, 49.4989 ], [ 8.2003, 48.9586 ], [ 7.586, 47.5846 ], [ 5.9548, 46.1999 ], [ 6.7871, 46.4142 ], [ 7.1596, 45.3985 ], [ 6.6027, 45.1034 ], [ 7.5023, 43.7922 ], [ 6.1545, 43.0338 ], [ 3.953, 43.5399 ], [ 2.5148, 42.3257 ], [ -0.569, 42.7726 ], [ -1.7474, 43.291 ], [ -1.0853, 45.569 ], [ -0.5347, 44.895 ], [ -0.4938, 44.998 ], [ -1.1107, 46.3027 ], [ -2.1188, 46.82 ], [ -1.727, 47.2108 ], [ -4.3718, 47.8072 ], [ -4.1875, 48.3075 ], [ -4.7849, 48.4362 ], [ -3.2297, 48.8723 ], [ -1.3566, 48.6433 ], [ -1.9352, 49.7241 ], [ 0.4113, 49.4521 ], [ 1.6725, 50.1925 ], [ 1.5806, 50.8688 ], [ 2.537, 51.0646 ] ], [ [ 1.9606, 42.4437 ], [ 1.9995, 42.4439 ], [ 1.968, 42.4857 ], [ 1.9457, 42.4638 ], [ 1.9606, 42.4437 ] ] ] ] } },
{ "type": "Feature", "properties": { "Name": "Denmark", "Photo": "32.jpg", "Link": "" }, "geometry": { "type": "MultiPolygon", "coordinates": [ [ [ [ 10.8343, 55.2903 ], [ 10.5383, 55.0297 ], [ 9.6763, 55.4957 ], [ 10.3384, 55.6101 ], [ 10.8343, 55.2903 ] ] ], [ [ [ 11.9491, 54.5686 ], [ 10.8755, 55.7427 ], [ 11.7683, 55.9705 ], [ 12.0603, 55.654 ], [ 12.3285, 56.1269 ], [ 12.6022, 55.7086 ], [ 11.9491, 54.5686 ] ] ], [ [ [ 10.3406, 56.7174 ], [ 9.8059, 56.6402 ], [ 10.9116, 56.334 ], [ 9.5564, 55.7116 ], [ 9.7459, 54.836 ], [ 8.6608, 54.8963 ], [ 8.1787, 56.6721 ], [ 8.7266, 56.4832 ], [ 9.0632, 56.8126 ], [ 9.0606, 56.5657 ], [ 9.3262, 56.5303 ], [ 9.2002, 56.9389 ], [ 9.9158, 57.0586 ], [ 8.6795, 56.9525 ], [ 8.5596, 56.593 ], [ 8.2479, 56.8124 ], [ 10.4605, 57.6306 ], [ 9.9269, 57.0586 ], [ 10.3406, 56.7174 ] ] ] ] } },
{ "type": "Feature", "properties": { "Name": "Portugal", "Photo": "47.jpg", "Link": "" }, "geometry": { "type": "MultiPolygon", "coordinates": [ [ [ [ -8.204, 42.0696 ], [ -6.2059, 41.5703 ], [ -6.9425, 41.016 ], [ -7.0211, 39.694 ], [ -7.5573, 39.6798 ], [ -6.9733, 39.014 ], [ -7.4002, 37.1723 ], [ -8.946, 37.0079 ], [ -8.7651, 39.0977 ], [ -9.4975, 38.8098 ], [ -8.5727, 40.7556 ], [ -8.8747, 41.8496 ], [ -8.204, 42.0696 ] ] ] ] } },
{ "type": "Feature", "properties": { "Name": "Slovakia", "Photo": "79.jpg", "Link": "" }, "geometry": { "type": "MultiPolygon", "coordinates": [ [ [ [ 19.7063, 49.3875 ], [ 21.6012, 49.4265 ], [ 22.5205, 48.9929 ], [ 22.0779, 48.3758 ], [ 20.5105, 48.5338 ], [ 18.6637, 47.7759 ], [ 17.0697, 48.0357 ], [ 17.1137, 48.8339 ], [ 18.5562, 49.4902 ], [ 19.7063, 49.3875 ] ] ] ] } },
{ "type": "Feature", "properties": { "Name": "Morocco", "Photo": "83.jpg", "Link": "" }, "geometry": { "type": "MultiPolygon", "coordinates": [ [ [ [ -5.4055, 35.9265 ], [ -4.7705, 35.241 ], [ -2.9686, 35.4464 ], [ -1.7695, 34.7413 ], [ -1.2103, 32.0897 ], [ -2.8812, 32.0763 ], [ -3.6595, 31.6478 ], [ -3.6455, 30.7113 ], [ -5.5395, 29.5232 ], [ -8.2505, 28.9948 ], [ -8.7939, 27.1202 ], [ -11.3916, 26.8829 ], [ -14.75, 21.5001 ], [ -17.0137, 21.42 ], [ -14.4661, 26.1942 ], [ -12.9524, 27.9286 ], [ -10.2484, 29.2994 ], [ -9.2599, 32.5769 ], [ -6.9274, 33.9442 ], [ -5.4055, 35.9265 ] ] ] ] } },
{ "type": "Feature", "properties": { "Name": "Armenia", "Photo": "75.jpg", "Link": "" }, "geometry": { "type": "MultiPolygon", "coordinates": [ [ [ [ 45.0024, 41.2905 ], [ 45.9792, 40.2236 ], [ 45.5794, 39.9702 ], [ 46.5243, 39.5546 ], [ 46.514, 38.8822 ], [ 43.6654, 40.1102 ], [ 43.4404, 41.1066 ], [ 45.0024, 41.2905 ] ], [ [ 44.9795, 41.0326 ], [ 45.0157, 41.0232 ], [ 45.0189, 41.0749 ], [ 44.9639, 41.0738 ], [ 44.9795, 41.0326 ] ], [ [ 45.1868, 40.9708 ], [ 45.2205, 40.979 ], [ 45.1877, 40.9984 ], [ 45.1772, 40.9938 ], [ 45.1868, 40.9708 ] ] ] ] } },
{ "type": "Feature", "properties": { "Name": "Iceland", "Photo": "78.jpg", "Link": "" }, "geometry": { "type": "MultiPolygon", "coordinates": [ [ [ [ -16.0229, 66.5366 ], [ -15.3804, 66.15 ], [ -14.9254, 66.3853 ], [ -14.5636, 66.3845 ], [ -15.1794, 66.1113 ], [ -14.8913, 65.7612 ], [ -13.6096, 65.5142 ], [ -14.0341, 65.2001 ], [ -13.5096, 65.0692 ], [ -14.2334, 65.0351 ], [ -13.6983, 64.9252 ], [ -14.5139, 64.8023 ], [ -14.5449, 64.4051 ], [ -18.732, 63.3967 ], [ -21.0448, 63.9457 ], [ -22.6912, 63.8122 ], [ -21.5109, 64.6514 ], [ -22.1648, 64.4597 ], [ -22.4084, 64.8227 ], [ -24.06, 64.8911 ], [ -21.8262, 65.0351 ], [ -22.5525, 65.1859 ], [ -21.6953, 65.4534 ], [ -24.5399, 65.508 ], [ -23.8068, 65.5353 ], [ -24.0928, 65.8048 ], [ -23.2855, 65.6793 ], [ -23.8666, 65.8756 ], [ -23.2098, 65.8432 ], [ -23.8131, 66.0114 ], [ -23.4614, 66.2042 ], [ -22.4316, 65.8459 ], [ -22.9776, 66.2342 ], [ -22.3675, 66.2752 ], [ -23.1353, 66.4328 ], [ -22.431, 66.4647 ], [ -21.3487, 66.0207 ], [ -21.7778, 65.7687 ], [ -21.0899, 65.1662 ], [ -20.4077, 66.0908 ], [ -19.4562, 65.7289 ], [ -18.827, 66.2034 ], [ -18.0636, 65.6452 ], [ -18.297, 66.1796 ], [ -17.5497, 65.9121 ], [ -16.0229, 66.5366 ] ] ] ] } },
{ "type": "Feature", "properties": { "Name": "Hungary", "Photo": "43.jpg", "Link": "" }, "geometry": { "type": "MultiPolygon", "coordinates": [ [ [ [ 20.9815, 48.5169 ], [ 22.8776, 47.9467 ], [ 21.0515, 46.2361 ], [ 17.8581, 45.7717 ], [ 16.094, 46.8628 ], [ 17.1848, 48.0203 ], [ 18.6928, 47.778 ], [ 20.9815, 48.5169 ] ] ] ] } },
{ "type": "Feature", "properties": { "Name": "Poland", "Photo": "38.jpg", "Link": "" }, "geometry": { "type": "MultiPolygon", "coordinates": [ [ [ [ 19.0021, 54.3449 ], [ 23.449, 54.1549 ], [ 23.9225, 52.7426 ], [ 23.1656, 52.2894 ], [ 24.1077, 50.5408 ], [ 22.6658, 49.5674 ], [ 22.8553, 48.994 ], [ 21.2605, 49.4494 ], [ 19.7859, 49.1882 ], [ 17.708, 50.311 ], [ 16.6606, 50.093 ], [ 16.3316, 50.644 ], [ 14.8104, 50.8584 ], [ 14.2101, 53.9385 ], [ 17.8854, 54.8241 ], [ 19.0021, 54.3449 ] ] ] ] } },
{ "type": "Feature", "properties": { "Name": "Saudi Arabia", "Photo": "76.jpg", "Link": "" }, "geometry": { "type": "MultiPolygon", "coordinates": [ [ [ [ 39.9486, 32.0061 ], [ 44.6918, 29.2018 ], [ 48.4946, 28.5002 ], [ 52.5385, 22.9547 ], [ 55.1868, 22.7036 ], [ 55.6376, 21.979 ], [ 54.9784, 19.9954 ], [ 49.0359, 18.5797 ], [ 47.1613, 16.9474 ], [ 43.4129, 17.52 ], [ 42.7895, 16.3709 ], [ 39.1743, 21.1089 ], [ 38.4526, 23.784 ], [ 37.4294, 24.3673 ], [ 35.2163, 28.0544 ], [ 34.5744, 28.0941 ], [ 34.9494, 29.3517 ], [ 36.0695, 29.2 ], [ 37.9814, 30.4988 ], [ 36.9595, 31.491 ], [ 39.9486, 32.0061 ] ] ] ] } },
{ "type": "Feature", "properties": { "Name": "Belgium", "Photo": "82.jpg", "Link": "" }, "geometry": { "type": "MultiPolygon", "coordinates": [ [ [ [ 4.8154, 51.4311 ], [ 6.3369, 50.481 ], [ 5.7907, 49.5378 ], [ 2.5867, 50.8454 ], [ 3.1248, 51.3297 ], [ 4.8154, 51.4311 ] ] ] ] } },
{ "type": "Feature", "properties": { "Name": "Greece", "Photo": "87.jpg", "Link": "" }, "geometry": { "type": "MultiPolygon", "coordinates": [ [ [ [ 26.2739, 41.7149 ], [ 26.1123, 40.747 ], [ 23.7107, 40.7376 ], [ 24.3938, 40.1525 ], [ 23.7305, 40.359 ], [ 23.9912, 39.9536 ], [ 22.5791, 40.4682 ], [ 23.3438, 39.1796 ], [ 22.5251, 38.8581 ], [ 24.0874, 37.7852 ], [ 23.0151, 37.9252 ], [ 23.5256, 37.4597 ], [ 22.7264, 37.5664 ], [ 23.1961, 36.4325 ], [ 22.6856, 36.8095 ], [ 22.491, 36.3909 ], [ 21.1336, 37.9464 ], [ 23.2234, 38.1593 ], [ 21.1556, 38.3039 ], [ 21.1599, 38.9977 ], [ 19.9999, 39.6935 ], [ 20.9653, 40.8494 ], [ 24.2507, 41.5635 ], [ 25.9596, 41.315 ], [ 26.2739, 41.7149 ] ] ] ] } },
{ "type": "Feature", "properties": { "Name": "Costa Rica", "Photo": "48.jpg", "Link": "" }, "geometry": { "type": "MultiPolygon", "coordinates": [ [ [ [ -85.2365, 11.0531 ], [ -83.6444, 10.9259 ], [ -82.5736, 9.5762 ], [ -82.8976, 8.0347 ], [ -84.7336, 9.9669 ], [ -85.6638, 9.9001 ], [ -85.9464, 10.8986 ], [ -85.2365, 11.0531 ] ] ] ] } },
{ "type": "Feature", "properties": { "Name": "Mexico", "Photo": "60.jpg", "Link": "" }, "geometry": { "type": "MultiPolygon", "coordinates": [ [ [ [ -113.1432, 31.981 ], [ -111.0063, 31.3272 ], [ -106.429, 31.7585 ], [ -103.3015, 29.0024 ], [ -102.321, 29.8939 ], [ -101.4051, 29.7784 ], [ -99.1064, 26.423 ], [ -97.1393, 25.9658 ], [ -97.891, 22.5961 ], [ -95.8619, 18.7234 ], [ -94.467, 18.1442 ], [ -91.4865, 18.4364 ], [ -90.3324, 21.0325 ], [ -87.1115, 21.6234 ], [ -86.7416, 21.1641 ], [ -87.8446, 18.1967 ], [ -88.0363, 18.875 ], [ -88.8714, 17.8909 ], [ -90.9828, 17.8105 ], [ -91.4425, 17.238 ], [ -90.4374, 16.0989 ], [ -91.7398, 16.061 ], [ -92.2462, 14.5463 ], [ -94.1424, 16.2268 ], [ -96.556, 15.659 ], [ -103.4984, 18.3335 ], [ -105.5256, 20.0319 ], [ -105.185, 21.443 ], [ -105.8002, 22.6385 ], [ -108.838, 25.8046 ], [ -109.4103, 25.6461 ], [ -109.2557, 26.498 ], [ -112.1665, 28.9667 ], [ -113.0487, 31.1567 ], [ -115.0295, 31.9709 ], [ -114.5331, 29.968 ], [ -111.5601, 26.6957 ], [ -109.5317, 23.1082 ], [ -109.9997, 22.8944 ], [ -112.0781, 24.7622 ], [ -113.1457, 26.9701 ], [ -113.6371, 26.7255 ], [ -115.0227, 27.7403 ], [ -113.9533, 27.6557 ], [ -114.0682, 28.518 ], [ -115.6976, 29.7558 ], [ -117.1251, 32.5317 ], [ -114.7243, 32.7128 ], [ -113.1432, 31.981 ] ] ] ] } },
{ "type": "Feature", "properties": { "Name": "Ukraine", "Photo": "34.jpg", "Link": "" }, "geometry": { "type": "MultiPolygon", "coordinates": [ [ [ [ 29.731, 45.5914 ], [ 30.126, 45.8115 ], [ 29.9081, 45.6665 ], [ 29.8075, 45.6143 ], [ 29.731, 45.5914 ] ] ], [ [ [ 34.0389, 52.1865 ], [ 34.186, 51.2489 ], [ 35.0787, 51.2076 ], [ 35.6114, 50.3517 ], [ 37.4152, 50.4319 ], [ 38.0004, 49.8998 ], [ 40.1307, 49.5798 ], [ 39.7338, 47.816 ], [ 34.8176, 46.1862 ], [ 35.3322, 45.3712 ], [ 36.5833, 45.4274 ], [ 36.4401, 45.0674 ], [ 33.6454, 44.4251 ], [ 33.5374, 45.1174 ], [ 32.4816, 45.4089 ], [ 33.777, 45.9296 ], [ 31.7859, 46.2924 ], [ 31.5083, 46.5876 ], [ 32.3176, 46.4643 ], [ 32.6455, 46.6496 ], [ 32.0228, 46.6291 ], [ 31.9769, 47.0093 ], [ 31.7417, 47.2591 ], [ 31.8994, 46.6496 ], [ 31.4407, 46.8005 ], [ 29.6382, 45.8263 ], [ 29.7088, 45.2233 ], [ 28.577, 45.2481 ], [ 28.9458, 46.4548 ], [ 30.1316, 46.4228 ], [ 29.124, 47.976 ], [ 27.583, 48.486 ], [ 24.8966, 47.7101 ], [ 22.1328, 48.4048 ], [ 22.6658, 49.5674 ], [ 24.1077, 50.5408 ], [ 23.6167, 51.6248 ], [ 25.7679, 51.9285 ], [ 30.5396, 51.2352 ], [ 30.9344, 52.0697 ], [ 33.1965, 52.3689 ], [ 34.0389, 52.1865 ] ] ] ] } },
{ "type": "Feature", "properties": { "Name": "Australia", "Photo": "18.jpg", "Link": "" }, "geometry": { "type": "MultiPolygon", "coordinates": [ [ [ [ 146.5856, -41.1801 ], [ 148.2093, -40.8408 ], [ 147.9985, -43.2304 ], [ 147.2837, -42.7785 ], [ 146.927, -43.6118 ], [ 146.0242, -43.5525 ], [ 144.7663, -40.7265 ], [ 146.5856, -41.1801 ] ] ], [ [ [ 143.7827, -14.4023 ], [ 144.4863, -14.1619 ], [ 145.3457, -14.9426 ], [ 146.3333, -18.9591 ], [ 148.782, -20.2408 ], [ 149.6633, -22.4938 ], [ 150.6775, -22.358 ], [ 150.814, -23.5092 ], [ 153.2056, -25.935 ], [ 153.6306, -28.6616 ], [ 153.0595, -31.0772 ], [ 151.2307, -33.5349 ], [ 149.9531, -37.5309 ], [ 147.7576, -37.9851 ], [ 146.2241, -38.7144 ], [ 146.3942, -39.145 ], [ 145.4644, -38.2345 ], [ 144.9446, -38.5103 ], [ 144.6768, -38.3332 ], [ 144.9348, -37.8679 ], [ 143.537, -38.8583 ], [ 141.4103, -38.4065 ], [ 139.7949, -37.2687 ], [ 138.9178, -35.5768 ], [ 139.672, -36.2278 ], [ 139.363, -35.3769 ], [ 138.1074, -35.6207 ], [ 138.5506, -34.7819 ], [ 138.0781, -34.1283 ], [ 137.7495, -35.131 ], [ 136.8394, -35.2561 ], [ 137.9309, -33.6165 ], [ 137.7739, -32.5198 ], [ 135.9646, -35.0075 ], [ 135.1081, -34.596 ], [ 134.1483, -32.457 ], [ 131.1775, -31.4776 ], [ 126.0076, -32.2734 ], [ 123.5266, -33.9387 ], [ 120.0022, -33.926 ], [ 117.9329, -35.1204 ], [ 115.1188, -34.3634 ], [ 115.7215, -31.7726 ], [ 113.157, -26.1519 ], [ 113.8703, -26.5221 ], [ 113.4208, -25.7282 ], [ 113.5153, -25.5093 ], [ 114.2344, -26.3166 ], [ 113.3914, -24.4137 ], [ 114.0358, -21.8378 ], [ 114.3374, -22.4938 ], [ 116.7909, -20.5349 ], [ 121.1283, -19.5207 ], [ 122.9162, -16.416 ], [ 123.5708, -17.5951 ], [ 123.5702, -16.1769 ], [ 123.863, -16.4298 ], [ 124.904, -16.4024 ], [ 124.3765, -15.5253 ], [ 125.1852, -15.5178 ], [ 124.842, -15.1412 ], [ 126.0864, -13.8894 ], [ 127.4185, -13.942 ], [ 128.2313, -14.7182 ], [ 128.0243, -15.4965 ], [ 128.5324, -14.7529 ], [ 129.7271, -15.1936 ], [ 129.3729, -14.3293 ], [ 130.5784, -12.4008 ], [ 132.7576, -12.1334 ], [ 131.7676, -11.3108 ], [ 131.9856, -11.1292 ], [ 135.2176, -12.3008 ], [ 135.9004, -11.7592 ], [ 136.0339, -12.4659 ], [ 136.2845, -12.4158 ], [ 136.177, -12.1708 ], [ 136.5722, -11.8964 ], [ 136.9837, -12.3455 ], [ 135.8834, -13.3258 ], [ 135.4696, -14.948 ], [ 140.5232, -17.6303 ], [ 142.5496, -10.7082 ], [ 143.7827, -14.4023 ] ] ] ] } },
{ "type": "Feature", "properties": { "Name": "Finland", "Photo": "71.jpg", "Link": "" }, "geometry": { "type": "MultiPolygon", "coordinates": [ [ [ [ 27.8973, 70.0707 ], [ 29.3445, 69.4644 ], [ 28.4102, 68.8985 ], [ 28.6638, 68.204 ], [ 30.0094, 67.6858 ], [ 29.0515, 66.9078 ], [ 30.1117, 65.712 ], [ 29.6336, 64.9072 ], [ 30.5585, 64.2197 ], [ 29.9808, 63.7415 ], [ 31.5695, 62.9059 ], [ 27.7184, 60.4885 ], [ 26.5534, 60.433 ], [ 26.6592, 60.6518 ], [ 25.9302, 60.2452 ], [ 22.9051, 59.8112 ], [ 23.0806, 60.355 ], [ 21.4085, 60.5804 ], [ 21.1135, 62.7812 ], [ 24.5384, 64.8053 ], [ 25.3622, 64.8331 ], [ 25.3586, 65.4655 ], [ 23.6894, 66.257 ], [ 23.6622, 67.9504 ], [ 20.6232, 69.0364 ], [ 21.6388, 69.2714 ], [ 22.4092, 68.7129 ], [ 23.929, 68.8162 ], [ 24.9052, 68.557 ], [ 26.0051, 69.6893 ], [ 27.8973, 70.0707 ] ] ] ] } },
{ "type": "Feature", "properties": { "Name": "Luxembourg", "Photo": "1.jpg", "Link": "" }, "geometry": { "type": "MultiPolygon", "coordinates": [ [ [ [ 6.0386, 50.1484 ], [ 6.5026, 49.7957 ], [ 6.3453, 49.4554 ], [ 5.7907, 49.5378 ], [ 6.0386, 50.1484 ] ] ] ] } },
{ "type": "Feature", "properties": { "Name": "Croatia", "Photo": "57.jpg", "Link": "" }, "geometry": { "type": "MultiPolygon", "coordinates": [ [ [ [ 16.3695, 46.5406 ], [ 17.8581, 45.7717 ], [ 18.9013, 45.9312 ], [ 19.4078, 45.2031 ], [ 18.8896, 44.8612 ], [ 15.7923, 45.1898 ], [ 17.6345, 42.9504 ], [ 15.9595, 43.504 ], [ 14.5708, 45.2936 ], [ 13.9032, 44.7724 ], [ 13.596, 45.1454 ], [ 13.5071, 45.5119 ], [ 15.3252, 45.4528 ], [ 16.3695, 46.5406 ] ] ] ] } },
{ "type": "Feature", "properties": { "Name": "Norway", "Photo": "72.jpg", "Link": "" }, "geometry": { "type": "MultiPolygon", "coordinates": [ [ [ [ 27.7155, 71.1042 ], [ 28.5488, 70.9726 ], [ 27.76, 70.7913 ], [ 27.6502, 70.6063 ], [ 28.3013, 70.7026 ], [ 28.0138, 70.0714 ], [ 28.7947, 70.8732 ], [ 30.947, 70.45 ], [ 30.159, 70.0714 ], [ 28.6537, 70.1823 ], [ 28.5967, 70.1613 ], [ 29.6859, 69.9695 ], [ 29.4873, 69.6611 ], [ 30.2892, 69.8865 ], [ 30.8982, 69.5442 ], [ 30.1191, 69.6346 ], [ 28.9541, 69.0273 ], [ 29.1471, 69.6639 ], [ 27.6651, 70.0683 ], [ 26.0051, 69.6893 ], [ 24.9052, 68.557 ], [ 23.929, 68.8162 ], [ 22.4092, 68.7129 ], [ 21.3136, 69.2914 ], [ 21.0715, 69.0367 ], [ 20.1023, 69.0221 ], [ 19.9712, 68.3513 ], [ 18.1718, 68.5359 ], [ 17.921, 67.9729 ], [ 17.3215, 68.1053 ], [ 16.1808, 67.4964 ], [ 16.4156, 67.0527 ], [ 15.4819, 66.2749 ], [ 14.5405, 66.1254 ], [ 13.6428, 64.584 ], [ 13.9823, 64.0195 ], [ 12.9824, 64.0588 ], [ 12.1703, 63.5981 ], [ 12.1617, 61.7248 ], [ 12.8882, 61.3496 ], [ 11.6644, 58.9201 ], [ 10.7381, 59.2167 ], [ 10.6887, 59.9118 ], [ 10.2625, 59.0386 ], [ 9.5391, 59.1205 ], [ 8.2019, 58.123 ], [ 6.5959, 58.0759 ], [ 5.478, 58.7547 ], [ 5.5505, 59.0386 ], [ 5.7156, 58.8673 ], [ 6.2289, 58.84 ], [ 6.6262, 59.0528 ], [ 5.8755, 59.0662 ], [ 6.5442, 59.56 ], [ 5.5054, 59.2777 ], [ 5.1823, 59.5112 ], [ 7.106, 60.5058 ], [ 6.1775, 60.471 ], [ 5.7393, 59.9945 ], [ 5.7366, 60.392 ], [ 5.4098, 60.1313 ], [ 5.141, 60.3514 ], [ 5.7498, 60.7182 ], [ 5.6756, 60.7578 ], [ 5.5266, 60.6287 ], [ 5.2228, 60.5742 ], [ 5.0081, 61.0336 ], [ 6.3729, 61.0124 ], [ 6.6006, 61.1752 ], [ 7.106, 60.8616 ], [ 7.695, 61.2321 ], [ 7.572, 61.4853 ], [ 7.3052, 61.1632 ], [ 6.7019, 61.4028 ], [ 6.4343, 61.1147 ], [ 5.1939, 61.1053 ], [ 5.6331, 61.3618 ], [ 4.9479, 61.4164 ], [ 5.8045, 61.458 ], [ 4.9881, 61.7469 ], [ 5.3948, 61.9111 ], [ 5.8993, 61.7386 ], [ 6.8186, 61.8764 ], [ 6.4763, 61.8253 ], [ 5.9614, 61.9167 ], [ 5.427, 61.9378 ], [ 5.1558, 61.8961 ], [ 5.085, 62.1911 ], [ 6.3667, 62.0613 ], [ 5.926, 62.2255 ], [ 6.5305, 62.1091 ], [ 6.7088, 62.4517 ], [ 6.9558, 62.1023 ], [ 7.1878, 62.1023 ], [ 7.3735, 62.273 ], [ 6.2661, 62.593 ], [ 8.1475, 62.692 ], [ 6.9102, 62.9294 ], [ 7.9739, 62.977 ], [ 8.5453, 62.6572 ], [ 8.1475, 62.9514 ], [ 7.8772, 63.0104 ], [ 8.0867, 63.1097 ], [ 8.3293, 62.8807 ], [ 8.703, 62.8223 ], [ 8.1655, 63.1153 ], [ 8.9431, 63.2121 ], [ 8.6724, 63.4212 ], [ 9.6991, 63.6445 ], [ 9.8333, 63.3288 ], [ 10.259, 63.2673 ], [ 11.4577, 63.79 ], [ 11.3621, 64.1171 ], [ 10.4158, 63.5794 ], [ 9.5441, 63.6656 ], [ 10.4831, 64.4237 ], [ 10.9712, 64.6026 ], [ 11.2474, 64.3256 ], [ 12.2249, 64.9394 ], [ 11.2673, 64.8698 ], [ 12.194, 64.9949 ], [ 12.931, 65.3124 ], [ 12.2453, 65.2336 ], [ 12.6823, 65.9267 ], [ 13.176, 65.8558 ], [ 12.6704, 66.0629 ], [ 14.1439, 66.3338 ], [ 13.0404, 66.1796 ], [ 13.5344, 66.3093 ], [ 12.972, 66.5222 ], [ 13.3621, 66.4555 ], [ 13.7262, 66.6048 ], [ 13.2253, 66.714 ], [ 13.993, 66.7897 ], [ 13.5436, 66.9219 ], [ 15.7404, 67.1733 ], [ 14.3283, 67.2416 ], [ 15.049, 67.447 ], [ 14.8224, 67.447 ], [ 14.7268, 67.4887 ], [ 15.0588, 67.5773 ], [ 15.6585, 67.2757 ], [ 15.898, 67.5569 ], [ 14.773, 67.816 ], [ 15.8601, 67.8996 ], [ 15.2818, 68.0367 ], [ 15.9797, 68.2501 ], [ 16.042, 68.0299 ], [ 16.4847, 67.7978 ], [ 16.1497, 68.3131 ], [ 16.803, 68.1323 ], [ 16.2201, 68.3514 ], [ 17.334, 68.1671 ], [ 17.2479, 68.406 ], [ 17.8718, 68.393 ], [ 16.4646, 68.51 ], [ 17.6794, 68.6605 ], [ 17.2344, 68.756 ], [ 17.783, 68.7486 ], [ 18.1585, 69.4596 ], [ 19.0054, 69.2856 ], [ 18.8527, 69.5523 ], [ 19.1775, 69.2535 ], [ 19.4772, 69.2208 ], [ 18.9443, 69.6153 ], [ 19.7842, 69.8044 ], [ 19.5303, 69.4003 ], [ 20.2927, 69.971 ], [ 19.948, 69.2631 ], [ 21.2899, 70.0211 ], [ 22.0863, 69.7396 ], [ 21.553, 70.321 ], [ 22.967, 70.2075 ], [ 22.2849, 70.044 ], [ 23.0186, 70.147 ], [ 23.3298, 69.9484 ], [ 23.5132, 70.3655 ], [ 24.7235, 70.621 ], [ 24.6369, 70.9757 ], [ 25.9258, 70.8637 ], [ 25.0599, 70.4897 ], [ 25.2285, 70.0924 ], [ 26.6136, 70.9491 ], [ 26.5059, 70.3629 ], [ 27.1021, 70.4698 ], [ 27.7155, 71.1042 ] ] ] ] } },
{ "type": "Feature", "properties": { "Name": "Bulgaria", "Photo": "62.jpg", "Link": "" }, "geometry": { "type": "MultiPolygon", "coordinates": [ [ [ [ 22.9196, 43.8342 ], [ 25.4031, 43.65 ], [ 27.0275, 44.177 ], [ 28.6035, 43.5382 ], [ 27.4529, 42.4801 ], [ 28.0168, 41.9725 ], [ 26.6057, 41.9674 ], [ 25.882, 41.304 ], [ 23.1152, 41.3127 ], [ 22.345, 42.3134 ], [ 22.9846, 43.1746 ], [ 22.3495, 43.8079 ], [ 22.6916, 44.2284 ], [ 22.9196, 43.8342 ] ] ] ] } },
{ "type": "Feature", "properties": { "Name": "Vatican", "Photo": "1.jpg", "Link": "" }, "geometry": { "type": "MultiPolygon", "coordinates": [ [ [ [ 12.4531, 41.9028 ], [ 12.453, 41.9039 ], [ 12.454, 41.9039 ], [ 12.454, 41.9028 ], [ 12.4531, 41.9028 ] ] ] ] } },
{ "type": "Feature", "properties": { "Name": "Ireland", "Photo": "25.jpg", "Link": "" }, "geometry": { "type": "MultiPolygon", "coordinates": [ [ [ [ -7.1291, 55.2858 ], [ -8.1738, 54.4617 ], [ -6.1073, 54.0136 ], [ -6.347, 52.1973 ], [ -9.8202, 51.4457 ], [ -9.5807, 51.8777 ], [ -10.3956, 51.8845 ], [ -9.7582, 52.152 ], [ -10.4613, 52.18 ], [ -8.7512, 52.673 ], [ -9.9363, 52.5567 ], [ -8.8948, 53.2209 ], [ -10.1765, 53.4127 ], [ -9.5602, 53.8651 ], [ -10.1151, 54.2351 ], [ -8.5112, 54.2077 ], [ -8.2785, 55.1605 ], [ -7.644, 55.2728 ], [ -7.6814, 54.9544 ], [ -7.1291, 55.2858 ] ] ] ] } },
{ "type": "Feature", "properties": { "Name": "Serbia", "Photo": "58.jpg", "Link": "" }, "geometry": { "type": "MultiPolygon", "coordinates": [ [ [ [ 19.6901, 46.1684 ], [ 21.3959, 44.7902 ], [ 22.7652, 44.5828 ], [ 22.424, 42.3259 ], [ 21.575, 42.242 ], [ 20.8194, 43.2574 ], [ 20.3453, 42.8274 ], [ 19.1922, 43.4545 ], [ 19.6189, 44.0357 ], [ 18.845, 45.8157 ], [ 19.6901, 46.1684 ] ] ] ] } },
{ "type": "Feature", "properties": { "Name": "United States of America", "Photo": "5.jpg", "Link": "" }, "geometry": { "type": "MultiPolygon", "coordinates": [ [ [ [ -95.1606, 49.3695 ], [ -94.5929, 48.7264 ], [ -91.5748, 48.0482 ], [ -88.3473, 48.2987 ], [ -84.1104, 46.5265 ], [ -82.5321, 45.2935 ], [ -82.1457, 43.5764 ], [ -83.1595, 42.0463 ], [ -82.6669, 41.6691 ], [ -79.0194, 42.8027 ], [ -78.7508, 43.6171 ], [ -76.8415, 43.6255 ], [ -74.9037, 45.0052 ], [ -70.8924, 45.2346 ], [ -69.2373, 47.4588 ], [ -67.8087, 47.0751 ], [ -67.807, 45.7129 ], [ -66.985, 44.8049 ], [ -68.5414, 44.2373 ], [ -68.8016, 44.5603 ], [ -70.2869, 43.6505 ], [ -71.0468, 42.3215 ], [ -69.9389, 41.6742 ], [ -71.3913, 41.8188 ], [ -71.4977, 41.3663 ], [ -73.8938, 40.8039 ], [ -73.9759, 41.2922 ], [ -74.4134, 39.3571 ], [ -74.9547, 38.9264 ], [ -75.5582, 39.6135 ], [ -75.0236, 40.0163 ], [ -75.5922, 39.6492 ], [ -75.0447, 38.425 ], [ -75.9491, 37.125 ], [ -75.6331, 37.96 ], [ -76.3747, 38.8416 ], [ -75.8317, 39.5844 ], [ -76.6232, 39.2597 ], [ -76.3239, 38.0438 ], [ -77.0316, 38.4814 ], [ -77.2553, 38.3935 ], [ -77.0125, 38.6974 ], [ -77.0683, 38.9019 ], [ -77.3431, 38.3487 ], [ -76.2479, 37.9035 ], [ -77.1339, 38.166 ], [ -76.2829, 37.0282 ], [ -76.8602, 37.3232 ], [ -77.2743, 37.3163 ], [ -76.0046, 36.9324 ], [ -75.5238, 35.7944 ], [ -75.9469, 36.7185 ], [ -75.7855, 36.0816 ], [ -76.7299, 36.3227 ], [ -75.7218, 35.8292 ], [ -76.1504, 35.3472 ], [ -77.052, 35.5344 ], [ -76.3463, 34.8832 ], [ -80.855, 32.5395 ], [ -81.4924, 31.3677 ], [ -80.0382, 26.8112 ], [ -80.4025, 25.1862 ], [ -81.732, 25.9205 ], [ -82.8424, 27.8285 ], [ -82.6336, 28.8876 ], [ -83.6806, 29.9213 ], [ -85.3461, 29.6784 ], [ -85.5868, 30.3261 ], [ -88.0301, 30.2238 ], [ -88.0301, 30.7377 ], [ -90.405, 30.2202 ], [ -89.366, 30.0487 ], [ -89.7569, 29.6341 ], [ -89.0102, 29.1748 ], [ -89.4136, 28.9284 ], [ -91.8475, 29.8312 ], [ -95.0523, 29.7498 ], [ -95.1589, 29.0457 ], [ -96.6509, 28.7297 ], [ -97.7743, 27.4685 ], [ -97.1393, 25.9658 ], [ -98.2227, 26.0754 ], [ -99.1064, 26.423 ], [ -101.4051, 29.7784 ], [ -102.321, 29.8939 ], [ -103.3866, 29.0288 ], [ -106.429, 31.7585 ], [ -111.0063, 31.3272 ], [ -114.7243, 32.7128 ], [ -117.1251, 32.5317 ], [ -118.5141, 34.0222 ], [ -120.6366, 34.5629 ], [ -122.5205, 37.5314 ], [ -122.0321, 37.4634 ], [ -122.3663, 38.0123 ], [ -121.4454, 38.0039 ], [ -122.3965, 38.1532 ], [ -122.5284, 37.8164 ], [ -123.0274, 37.9945 ], [ -123.7262, 38.9186 ], [ -124.5668, 42.834 ], [ -124.0227, 46.2308 ], [ -123.1801, 46.1791 ], [ -124.0802, 46.2717 ], [ -123.8131, 46.959 ], [ -124.7275, 48.3877 ], [ -122.7702, 48.1411 ], [ -122.8933, 47.0473 ], [ -122.1917, 48.0263 ], [ -122.753, 48.9925 ], [ -95.1771, 48.9927 ], [ -95.1606, 49.3695 ] ] ] ] } },
{ "type": "Feature", "properties": { "Name": "Japan", "Photo": "86.jpg", "Link": "" }, "geometry": { "type": "MultiPolygon", "coordinates": [ [ [ [ 141.2761, 41.3532 ], [ 142.0584, 39.4663 ], [ 140.9668, 38.1705 ], [ 140.3212, 35.1304 ], [ 139.757, 34.9563 ], [ 139.9504, 35.6726 ], [ 138.8353, 34.5959 ], [ 138.8033, 35.1219 ], [ 138.2333, 34.5946 ], [ 137.0161, 34.5788 ], [ 136.8301, 35.0788 ], [ 136.8957, 34.2669 ], [ 135.76, 33.4333 ], [ 135.0589, 33.88 ], [ 135.4129, 34.6921 ], [ 134.6963, 34.7762 ], [ 132.3835, 34.3657 ], [ 132.0559, 33.7772 ], [ 130.8794, 33.9379 ], [ 133.0913, 35.6015 ], [ 136.0691, 35.6619 ], [ 136.8422, 37.3995 ], [ 137.3509, 37.5061 ], [ 137.1973, 36.7581 ], [ 138.5506, 37.3779 ], [ 139.9953, 39.3273 ], [ 139.8604, 40.6088 ], [ 141.2761, 41.3532 ] ] ] ] } },
{ "type": "Feature", "properties": { "Name": "Monaco", "Photo": "61.jpg", "Link": "" }, "geometry": { "type": "MultiPolygon", "coordinates": [ [ [ [ 7.4375, 43.7434 ], [ 7.4043, 43.718 ], [ 7.3658, 43.7227 ], [ 7.407, 43.7635 ], [ 7.4375, 43.7434 ] ] ] ] } },
{ "type": "Feature", "properties": { "Name": "Sweden", "Photo": "85.jpg", "Link": "" }, "geometry": { "type": "MultiPolygon", "coordinates": [ [ [ [ 22.5652, 68.4363 ], [ 23.6622, 67.9504 ], [ 24.1631, 65.8227 ], [ 22.653, 65.9084 ], [ 22.4053, 65.5419 ], [ 21.7642, 65.7277 ], [ 22.203, 65.549 ], [ 21.2778, 65.35 ], [ 21.0374, 64.8327 ], [ 21.6065, 64.4522 ], [ 20.6747, 63.7893 ], [ 18.1951, 62.7774 ], [ 17.6936, 62.9936 ], [ 18.0642, 62.5958 ], [ 17.3308, 62.4877 ], [ 17.1867, 60.6924 ], [ 19.0745, 59.7497 ], [ 18.009, 59.4085 ], [ 18.6465, 59.3303 ], [ 17.8928, 58.861 ], [ 17.6589, 59.1689 ], [ 17.3578, 58.7512 ], [ 16.1792, 58.6345 ], [ 16.9402, 58.4911 ], [ 16.4126, 58.4775 ], [ 16.689, 57.4717 ], [ 15.8744, 56.1027 ], [ 14.7249, 56.1676 ], [ 14.1812, 55.3908 ], [ 12.8328, 55.3826 ], [ 12.4514, 56.3044 ], [ 12.9344, 56.5471 ], [ 11.1082, 58.9536 ], [ 11.6644, 58.9201 ], [ 12.8882, 61.3496 ], [ 12.1617, 61.7248 ], [ 12.1703, 63.5981 ], [ 12.9824, 64.0588 ], [ 13.9823, 64.0195 ], [ 13.6428, 64.584 ], [ 14.5405, 66.1254 ], [ 15.4819, 66.2749 ], [ 16.4156, 67.0527 ], [ 16.1808, 67.4964 ], [ 17.3215, 68.1053 ], [ 17.921, 67.9729 ], [ 18.1718, 68.5359 ], [ 19.9712, 68.3513 ], [ 20.1023, 69.0221 ], [ 20.6232, 69.0364 ], [ 22.5652, 68.4363 ] ] ] ] } },
{ "type": "Feature", "properties": { "Name": "Italy", "Photo": "81.jpg", "Link": "" }, "geometry": { "type": "MultiPolygon", "coordinates": [ [ [ [ 12.1221, 46.9717 ], [ 13.701, 46.5197 ], [ 13.8947, 45.6318 ], [ 12.2727, 45.4636 ], [ 12.39, 44.2227 ], [ 14.7407, 42.0846 ], [ 16.1405, 41.9199 ], [ 15.9336, 41.4794 ], [ 18.5161, 40.1392 ], [ 18.3465, 39.798 ], [ 16.9121, 40.4452 ], [ 16.4898, 39.7752 ], [ 17.2064, 39.0295 ], [ 16.0632, 37.9327 ], [ 15.6243, 40.0778 ], [ 11.1066, 42.3913 ], [ 10.1058, 44.0168 ], [ 8.7624, 44.4321 ], [ 7.5311, 43.7845 ], [ 6.8698, 44.3629 ], [ 6.8008, 45.8265 ], [ 8.3992, 46.4522 ], [ 9.0024, 45.8207 ], [ 9.2823, 46.4974 ], [ 10.0757, 46.22 ], [ 10.4538, 46.8644 ], [ 12.1221, 46.9717 ] ], [ [ 12.3996, 43.9032 ], [ 12.4605, 43.8953 ], [ 12.4822, 43.9826 ], [ 12.3957, 43.9484 ], [ 12.3996, 43.9032 ] ], [ [ 12.4527, 41.903 ], [ 12.454, 41.9028 ], [ 12.454, 41.9039 ], [ 12.453, 41.9039 ], [ 12.4527, 41.903 ] ] ] ] } },
{ "type": "Feature", "properties": { "Name": "Switzerland", "Photo": "54.jpg", "Link": "" }, "geometry": { "type": "MultiPolygon", "coordinates": [ [ [ [ 8.6174, 47.7573 ], [ 10.4585, 46.9366 ], [ 10.1458, 46.2433 ], [ 9.2823, 46.4974 ], [ 9.0024, 45.8207 ], [ 8.3992, 46.4522 ], [ 7.8312, 45.9145 ], [ 6.6137, 46.4559 ], [ 5.9588, 46.1305 ], [ 6.9733, 47.4891 ], [ 8.6174, 47.7573 ] ] ] ] } },
{ "type": "Feature", "properties": { "Name": "Austria", "Photo": "15.jpg", "Link": "" }, "geometry": { "type": "MultiPolygon", "coordinates": [ [ [ [ 15.1618, 48.9372 ], [ 16.945, 48.6042 ], [ 17.0754, 47.7085 ], [ 16.4318, 47.6855 ], [ 16.0167, 46.6706 ], [ 14.5403, 46.3786 ], [ 12.1806, 47.0852 ], [ 10.8704, 46.7641 ], [ 9.5812, 47.0569 ], [ 9.7671, 47.5873 ], [ 13.0019, 47.466 ], [ 12.745, 48.1206 ], [ 15.1618, 48.9372 ] ] ] ] } },
{ "type": "Feature", "properties": { "Name": "Romania", "Photo": "80.jpg", "Link": "" }, "geometry": { "type": "MultiPolygon", "coordinates": [ [ [ [ 26.7224, 48.2598 ], [ 28.1023, 46.9351 ], [ 28.0621, 45.5936 ], [ 29.5697, 45.395 ], [ 29.6112, 44.8493 ], [ 28.8801, 44.9548 ], [ 28.5784, 43.7413 ], [ 27.0275, 44.177 ], [ 25.4031, 43.65 ], [ 22.8888, 43.8395 ], [ 22.7652, 44.5828 ], [ 21.3959, 44.7902 ], [ 20.2428, 46.1081 ], [ 21.1445, 46.2837 ], [ 23.1186, 48.0915 ], [ 24.8966, 47.7101 ], [ 26.7224, 48.2598 ] ] ] ] } },
{ "type": "Feature", "properties": { "Name": "United Kingdom", "Photo": "39.jpg", "Link": "" }, "geometry": { "type": "MultiPolygon", "coordinates": [ [ [ [ -3.3479, 58.652 ], [ -3.1298, 58.3693 ], [ -4.4285, 57.5775 ], [ -1.7594, 57.4736 ], [ -3.3235, 56.3659 ], [ -2.6483, 56.2287 ], [ -3.8375, 56.1064 ], [ -2.138, 55.9146 ], [ -1.2037, 54.6257 ], [ -0.0755, 54.1121 ], [ 0.1312, 53.5734 ], [ -0.2604, 53.7354 ], [ -0.7265, 53.7006 ], [ 0.2195, 53.4195 ], [ 0.0103, 52.8865 ], [ 1.2747, 52.9292 ], [ 1.7712, 52.4859 ], [ 0.3845, 51.4531 ], [ 1.4483, 51.3829 ], [ 0.9798, 50.9182 ], [ -3.4644, 50.6785 ], [ -3.6456, 50.226 ], [ -4.2005, 50.4594 ], [ -5.1911, 49.9591 ], [ -5.7092, 50.1326 ], [ -4.5264, 51.015 ], [ -3.0218, 51.1925 ], [ -2.3808, 51.7619 ], [ -3.2894, 51.3842 ], [ -5.2495, 51.7337 ], [ -3.9473, 52.5493 ], [ -4.0776, 52.9267 ], [ -4.7628, 52.7895 ], [ -4.178, 53.2176 ], [ -2.6998, 53.3518 ], [ -2.796, 54.2487 ], [ -3.6342, 54.5129 ], [ -3.0463, 54.9821 ], [ -4.9537, 54.6597 ], [ -4.4817, 55.9283 ], [ -4.7555, 56.2065 ], [ -5.2967, 55.8527 ], [ -5.0495, 56.237 ], [ -5.7723, 55.3013 ], [ -4.9956, 56.716 ], [ -6.2364, 56.7191 ], [ -5.4004, 57.1064 ], [ -5.8112, 57.8332 ], [ -5.0708, 57.8332 ], [ -5.005, 58.6177 ], [ -3.3479, 58.652 ] ] ] ] } },
{ "type": "Feature", "properties": { "Name": "Germany", "Photo": "26.jpg", "Link": "" }, "geometry": { "type": "MultiPolygon", "coordinates": [ [ [ [ 8.9041, 54.8979 ], [ 9.9475, 54.7795 ], [ 10.1418, 54.3244 ], [ 11.1355, 54.3859 ], [ 10.8874, 53.9639 ], [ 12.5339, 54.4883 ], [ 14.2645, 53.7516 ], [ 14.9553, 51.064 ], [ 12.0761, 50.3152 ], [ 13.8157, 48.7664 ], [ 12.7389, 48.1134 ], [ 13.0019, 47.466 ], [ 7.6614, 47.5462 ], [ 8.2003, 48.9586 ], [ 6.3453, 49.4554 ], [ 5.928, 51.8067 ], [ 7.0263, 52.2306 ], [ 7.0868, 53.5869 ], [ 8.5044, 53.3581 ], [ 8.6519, 53.8925 ], [ 9.2747, 53.8651 ], [ 9.5671, 53.5996 ], [ 9.832, 53.5436 ], [ 8.6027, 54.3121 ], [ 8.9041, 54.8979 ] ] ] ] } },
{ "type": "Feature", "properties": { "Name": "Netherlands", "Photo": "56.jpg", "Link": "" }, "geometry": { "type": "MultiPolygon", "coordinates": [ [ [ [ 6.8669, 53.4343 ], [ 7.0291, 52.2358 ], [ 5.9315, 51.8156 ], [ 5.9949, 50.7499 ], [ 5.0275, 51.4768 ], [ 4.3922, 51.3504 ], [ 3.5354, 51.4592 ], [ 4.2832, 51.4477 ], [ 3.8623, 51.8161 ], [ 4.7454, 52.9676 ], [ 6.8669, 53.4343 ] ] ] ] } },
{ "type": "Feature", "properties": { "Name": "Latvia", "Photo": "40.jpg", "Link": "" }, "geometry": { "type": "MultiPolygon", "coordinates": [ [ [ [ 25.3337, 58.0318 ], [ 27.8277, 57.305 ], [ 28.2153, 56.256 ], [ 27.5927, 55.7942 ], [ 26.481, 55.6783 ], [ 24.871, 56.4426 ], [ 21.0534, 56.0726 ], [ 21.7297, 57.5738 ], [ 22.6003, 57.758 ], [ 23.6952, 56.9673 ], [ 24.4006, 57.2581 ], [ 24.3062, 57.8682 ], [ 25.3337, 58.0318 ] ] ] ] } },
{ "type": "Feature", "properties": { "Name": "Spain", "Photo": "13.jpg", "Link": "" }, "geometry": { "type": "MultiPolygon", "coordinates": [ [ [ [ -4.2994, 35.1717 ], [ -4.3019, 35.1727 ], [ -4.3011, 35.1729 ], [ -4.2969, 35.1723 ], [ -4.2994, 35.1717 ] ] ], [ [ [ -1.8113, 43.3951 ], [ -0.569, 42.7726 ], [ 3.181, 42.4315 ], [ 3.2322, 41.946 ], [ 0.7142, 40.8152 ], [ -0.7279, 37.6034 ], [ -2.1267, 36.7364 ], [ -4.4032, 36.7239 ], [ -5.6118, 36.0065 ], [ -7.5291, 37.5567 ], [ -6.9475, 38.1966 ], [ -7.5573, 39.6798 ], [ -7.0211, 39.694 ], [ -6.9425, 41.016 ], [ -6.2059, 41.5703 ], [ -6.6095, 41.9623 ], [ -8.8813, 41.8933 ], [ -9.292, 42.9226 ], [ -7.6962, 43.7315 ], [ -1.8113, 43.3951 ] ] ] ] } },
{ "type": "Feature", "properties": { "Name": "Slovenia", "Photo": "84.jpg", "Link": "" }, "geometry": { "type": "MultiPolygon", "coordinates": [ [ [ [ 16.3434, 46.7142 ], [ 15.3252, 45.4528 ], [ 13.5895, 45.4888 ], [ 13.701, 46.5197 ], [ 16.3434, 46.7142 ] ] ] ] } },
{ "type": "Feature", "properties": { "Name": "Hong Kong", "Photo": "22.jpg", "Link": "" }, "geometry": { "type": "MultiPolygon", "coordinates": [ [ [ [ 114.1174, 22.2219 ], [ 114.1546, 22.2036 ], [ 114.1454, 22.1787 ], [ 114.1109, 22.1771 ], [ 114.1174, 22.2219 ] ] ], [ [ [ 114.2156, 22.2856 ], [ 114.2561, 22.2036 ], [ 114.2077, 22.1896 ], [ 114.1126, 22.2715 ], [ 114.2156, 22.2856 ] ] ], [ [ [ 114.0518, 22.3285 ], [ 114.0002, 22.2161 ], [ 113.8392, 22.2049 ], [ 113.8925, 22.2927 ], [ 114.0518, 22.3285 ] ] ], [ [ [ 114.1732, 22.5639 ], [ 114.3998, 22.4361 ], [ 114.2967, 22.2583 ], [ 113.897, 22.4088 ], [ 114.1732, 22.5639 ] ] ] ] } },
{ "type": "Feature", "properties": { "Name": "Singapore", "Photo": "88.jpg", "Link": "" }, "geometry": { "type": "Polygon", "coordinates": [ [ [ 103.9608, 1.3911 ], [ 103.8389, 1.2663 ], [ 103.6404, 1.3223 ], [ 103.7083, 1.4294 ], [ 103.9608, 1.3911 ] ] ] } }
]
};
